{"fetched_at":"2026-03-30T13:17:50Z","count":15418,"tles":[{"name":"STARLINK-35347","line1":"1 65907U 25224AB  26087.80718424  .00034714  00000+0  11786-2 0  9992","line2":"2 65907  53.1587 282.3729 0001428  83.3680 276.7484 15.30203655 27786","category":"Starlink"}]}