{
  "norad_id": 65907,
  "name": "STARLINK-35347",
  "history": [
    {
      "epoch": "2026-03-28T19:22:20.718336",
      "apogee_km": 476.183293120861,
      "perigee_km": 474.2250194188682,
      "latitude_deg": -30.40558793424804,
      "longitude_deg": 128.1896870401688,
      "semi_major_axis_km": 6853.341156269865,
      "eccentricity": 0.00014287,
      "inclination_deg": 53.1587,
      "raan_deg": 282.3729,
      "arg_perigee_deg": 83.368,
      "mean_anomaly_deg": 276.7484,
      "mean_motion_rev_day": 15.30203655
    }
  ]
}